{
  "norad_id": 58841,
  "name": "STARLINK-31236",
  "history": [
    {
      "epoch": "2026-03-28T08:45:21.915072",
      "apogee_km": 475.9964467431282,
      "perigee_km": 474.4804800906213,
      "latitude_deg": -40.57317577164597,
      "longitude_deg": 99.12435008003376,
      "semi_major_axis_km": 6853.3754634168745,
      "eccentricity": 0.0001106,
      "inclination_deg": 53.1594,
      "raan_deg": 117.7023,
      "arg_perigee_deg": 76.3083,
      "mean_anomaly_deg": 283.8041,
      "mean_motion_rev_day": 15.30192165
    },
    {
      "epoch": "2026-03-29T05:08:03.292800",
      "apogee_km": 476.02693171225656,
      "perigee_km": 474.4246154957882,
      "latitude_deg": -50.51757861860986,
      "longitude_deg": -179.3630079999566,
      "semi_major_axis_km": 6853.362773604022,
      "eccentricity": 0.0001169,
      "inclination_deg": 53.1593,
      "raan_deg": 113.7582,
      "arg_perigee_deg": 77.7498,
      "mean_anomaly_deg": 282.3633,
      "mean_motion_rev_day": 15.30196415
    }
  ]
}